NORAD_CAT_ID,OBJECT_NAME,OBJECT_TYPE,EPOCH,MEAN_MOTION,ECCENTRICITY,INCLINATION,RA_OF_ASC_NODE,ARG_OF_PERICENTER,MEAN_ANOMALY,BSTAR,MEAN_MOTION_DOT,MEAN_MOTION_DDOT,TLE_LINE0,TLE_LINE1,TLE_LINE2,SEMIMAJOR_AXIS,PERIOD,APOGEE,PERIGEE,DECAYED
55399.0,STARLINK-5276,PAYLOAD,2023-05-21 09:37:31,15.69898719,0.0003594,69.9978,141.2189,257.9394,102.1399,-2.9197e-05,-3.718e-05,0.0,0 STARLINK-5276,1 55399U 23014J   23141.40106185 -.00003718  00000-0 -29197-4 0  9990,2 55399  69.9978 141.2189 0003594 257.9394 102.1399 15.69898719 17429,6737.324,91.726,361.61,356.767,0.0
55399.0,STARLINK-5276,PAYLOAD,2023-05-21 17:16:16,15.69914658,0.0003445,69.9964,140.3209,263.1972,96.8832,6.7146e-06,5.94e-06,0.0,0 STARLINK-5276,1 55399U 23014J   23141.71963100  .00000594  00000-0  67146-5 0  9996,2 55399  69.9964 140.3209 0003445 263.1972  96.8832 15.69914658 17470,6737.278,91.725,361.464,356.822,0.0
55399.0,STARLINK-5276,PAYLOAD,2023-05-22 00:55:00,15.69935575,0.0003852,69.9998,139.4277,264.6056,95.47,7.4409e-06,6.82e-06,0.0,0 STARLINK-5276,1 55399U 23014J   23142.03820119  .00000682  00000-0  74409-5 0  9992,2 55399  69.9998 139.4277 0003852 264.6056  95.4700 15.69935575 17528,6737.218,91.724,361.678,356.488,0.0
55399.0,STARLINK-5276,PAYLOAD,2023-05-22 02:26:44,15.69948257,0.0003146,69.999,139.2456,265.8589,94.2247,1.9911e-05,2.184e-05,0.0,0 STARLINK-5276,1 55399U 23014J   23142.10190809  .00002184  00000-0  19911-4 0  9991,2 55399  69.9990 139.2456 0003146 265.8589  94.2247 15.69948257 17532,6737.182,91.723,361.167,356.928,0.0
55399.0,STARLINK-5276,PAYLOAD,2023-05-22 08:33:45,15.69937059,0.0003231,70.0002,138.5306,266.2141,93.8686,1.2581e-05,1.301e-05,0.0,0 STARLINK-5276,1 55399U 23014J   23142.35678125  .00001301  00000-0  12581-4 0  9996,2 55399  70.0002 138.5306 0003231 266.2141  93.8686 15.69937059 18518,6737.214,91.723,361.256,356.902,0.0
55399.0,STARLINK-5276,PAYLOAD,2023-05-23 02:54:48,15.69907042,0.000314,69.9982,136.3817,250.3903,109.6954,2.8302e-05,3.189e-05,0.0,0 STARLINK-5276,1 55399U 23014J   23143.12139560  .00003189  00000-0  28302-4 0  9991,2 55399  69.9982 136.3817 0003140 250.3903 109.6954 15.69907042 17695,6737.3,91.725,361.28,357.049,0.0
55399.0,STARLINK-5276,PAYLOAD,2023-05-23 09:01:48,15.69916796,0.0003451,69.9962,135.6629,259.1341,100.9466,4.1302e-05,4.755e-05,0.0,0 STARLINK-5276,1 55399U 23014J   23143.37625551  .00004755  00000-0  41302-4 0  9993,2 55399  69.9962 135.6629 0003451 259.1341 100.9466 15.69916796 17737,6737.272,91.725,361.462,356.812,0.0
55399.0,STARLINK-5276,PAYLOAD,2023-05-23 16:40:34,15.69915397,0.0003379,69.9964,134.7689,266.9409,93.14,1.2265e-05,1.262e-05,0.0,0 STARLINK-5276,1 55399U 23014J   23143.69484848  .00001262  00000-0  12265-4 0  9996,2 55399  69.9964 134.7689 0003379 266.9409  93.1400 15.69915397 17787,6737.276,91.725,361.418,356.865,0.0
55399.0,STARLINK-5276,PAYLOAD,2023-05-24 09:29:50,15.69942474,0.0003223,69.9973,132.7988,263.2543,96.8286,-2.2666e-05,-2.939e-05,0.0,0 STARLINK-5276,1 55399U 23014J   23144.39572163 -.00002939  00000-0 -22666-4 0  9992,2 55399  69.9973 132.7988 0003223 263.2543  96.8286 15.69942474 17894,6737.199,91.723,361.235,356.892,0.0
55399.0,STARLINK-5276,PAYLOAD,2023-05-26 01:15:24,15.69914564,0.0003349,69.9967,128.1386,264.4128,95.6686,6.5711e-06,5.77e-06,0.0,0 STARLINK-5276,1 55399U 23014J   23146.05236785  .00000577  00000-0  65711-5 0  9997,2 55399  69.9967 128.1386 0003349 264.4128  95.6686 15.69914564 18159,6737.278,91.725,361.4,356.887,0.0
55399.0,STARLINK-5276,PAYLOAD,2023-05-26 08:54:10,15.69911679,0.0003255,69.9975,127.2442,264.7455,95.3369,-9.6882e-06,-1.377e-05,0.0,0 STARLINK-5276,1 55399U 23014J   23146.37095689 -.00001377  00000-0 -96882-5 0  9992,2 55399  69.9975 127.2442 0003255 264.7455  95.3369 15.69911679 19142,6737.287,91.725,361.345,356.959,0.0
55399.0,STARLINK-5276,PAYLOAD,2023-05-27 01:43:26,15.69923798,0.0003769,69.9965,125.273,268.1341,91.9423,2.4312e-07,-1.84e-06,0.0,0 STARLINK-5276,1 55399U 23014J   23147.07183105 -.00000184  00000-0  24312-6 0  9995,2 55399  69.9965 125.2730 0003769 268.1341  91.9423 15.69923798 18317,6737.252,91.724,361.656,356.578,0.0
55399.0,STARLINK-5276,PAYLOAD,2023-05-27 21:36:12,15.69924656,0.000335,69.9972,122.9452,261.8599,98.2217,3.0205e-07,-1.76e-06,0.0,0 STARLINK-5276,1 55399U 23014J   23147.90014975 -.00000176  00000-0  30205-6 0  9994,2 55399  69.9972 122.9452 0003350 261.8599  98.2217 15.69924656 19384,6737.25,91.724,361.372,356.858,0.0
55399.0,STARLINK-5276,PAYLOAD,2023-05-28 02:11:28,15.69921556,0.0003354,69.9975,122.4074,261.2751,98.8065,-4.0853e-06,-7.04e-06,0.0,0 STARLINK-5276,1 55399U 23014J   23148.09130277 -.00000704  00000-0 -40853-5 0  9996,2 55399  69.9975 122.4074 0003354 261.2751  98.8065 15.69921556 18472,6737.258,91.724,361.383,356.864,0.0
55399.0,STARLINK-5276,PAYLOAD,2023-05-28 15:57:13,15.69926891,0.0003649,69.9965,120.7952,265.0928,94.9852,1.5431e-05,1.643e-05,0.0,0 STARLINK-5276,1 55399U 23014J   23148.66474407  .00001643  00000-0  15431-4 0  9999,2 55399  69.9965 120.7952 0003649 265.0928  94.9852 15.69926891 18560,6737.243,91.724,361.567,356.65,0.0
55399.0,STARLINK-5276,PAYLOAD,2023-05-29 07:14:46,15.6991431,0.0003237,69.9976,119.0039,268.3356,91.7469,-3.7413e-06,-6.62e-06,0.0,0 STARLINK-5276,1 55399U 23014J   23149.30192500 -.00000662  00000-0 -37413-5 0  9999,2 55399  69.9976 119.0039 0003237 268.3356  91.7469 15.69914310 18666,6737.279,91.725,361.325,356.963,0.0
55399.0,STARLINK-5276,PAYLOAD,2023-05-29 21:00:32,15.69917715,0.0003533,69.9972,117.3907,263.5684,96.5109,5.2185e-06,4.14e-06,0.0,0 STARLINK-5276,1 55399U 23014J   23149.87537180  .00000414  00000-0  52185-5 0  9994,2 55399  69.9972 117.3907 0003533 263.5684  96.5109 15.69917715 19697,6737.269,91.725,361.515,356.754,0.0
55399.0,STARLINK-5276,PAYLOAD,2023-05-30 01:35:46,15.69926539,0.0002882,70.0008,116.8567,248.6666,111.4222,1.2316e-05,1.269e-05,0.0,0 STARLINK-5276,1 55399U 23014J   23150.06651537  .00001269  00000-0  12316-4 0  9990,2 55399  70.0008 116.8567 0002882 248.6666 111.4222 15.69926539 18782,6737.244,91.724,361.051,357.167,0.0
55399.0,STARLINK-5276,PAYLOAD,2023-05-30 07:42:47,15.69924702,0.0003131,69.9975,116.1368,264.2886,95.7953,1.3852e-05,1.453e-05,0.0,0 STARLINK-5276,1 55399U 23014J   23150.32138260  .00001453  00000-0  13852-4 0  9993,2 55399  69.9975 116.1368 0003131 264.2886  95.7953 15.69924702 19764,6737.249,91.724,361.224,357.005,0.0
55399.0,STARLINK-5276,PAYLOAD,2023-05-30 15:21:33,15.6992359,0.0003164,69.9965,115.2422,268.5019,91.5815,3.8175e-06,2.46e-06,0.0,0 STARLINK-5276,1 55399U 23014J   23150.63996874  .00000246  00000-0  38175-5 0  9995,2 55399  69.9965 115.2422 0003164 268.5019  91.5815 15.69923590 18871,6737.253,91.724,361.249,356.986,0.0
55399.0,STARLINK-5276,PAYLOAD,2023-05-31 06:39:04,15.69934928,0.0002938,69.9982,113.4508,259.4631,100.6233,-2.2065e-05,-2.866e-05,0.0,0 STARLINK-5276,1 55399U 23014J   23151.27713438 -.00002866  00000-0 -22065-4 0  9991,2 55399  69.9982 113.4508 0002938 259.4631 100.6233 15.69934928 19911,6737.22,91.724,361.065,357.106,0.0
55399.0,STARLINK-5276,PAYLOAD,2023-05-31 21:56:35,15.69930307,0.0003271,69.9982,111.6594,262.5168,97.5656,-4.1938e-06,-7.17e-06,0.0,0 STARLINK-5276,1 55399U 23014J   23151.91430234 -.00000717  00000-0 -41938-5 0  9996,2 55399  69.9982 111.6594 0003271 262.5168  97.5656 15.69930307 20010,6737.233,91.724,361.302,356.895,0.0
55399.0,STARLINK-5276,PAYLOAD,2023-06-01 01:00:06,15.69928972,0.0003456,69.9978,111.301,264.6842,95.396,-6.5765e-06,-1.004e-05,0.0,0 STARLINK-5276,1 55399U 23014J   23152.04173661 -.00001004  00000-0 -65765-5 0  9993,2 55399  69.9978 111.3010 0003456 264.6842  95.3960 15.69928972 19097,6737.237,91.724,361.431,356.774,0.0
55399.0,STARLINK-5276,PAYLOAD,2023-06-01 07:07:06,15.69928663,0.0003282,69.9976,110.5845,261.5168,98.5656,-2.0361e-06,-4.58e-06,0.0,0 STARLINK-5276,1 55399U 23014J   23152.29660198 -.00000458  00000-0 -20361-5 0  9991,2 55399  69.9976 110.5845 0003282 261.5168  98.5656 15.69928663 20070,6737.238,91.724,361.314,356.892,0.0
55399.0,STARLINK-5276,PAYLOAD,2023-06-01 23:56:24,15.69906366,0.0003101,69.9998,108.6159,257.6717,102.4131,-7.1376e-06,-1.07e-05,0.0,0 STARLINK-5276,1 55399U 23014J   23152.99750532 -.00001070  00000-0 -71376-5 0  9993,2 55399  69.9998 108.6159 0003101 257.6717 102.4131 15.69906366 19242,6737.302,91.725,361.256,357.078,0.0
55399.0,STARLINK-5276,PAYLOAD,2023-06-02 07:35:08,15.69929935,0.0003082,69.9984,107.7197,273.9146,86.1697,2.2334e-05,2.474e-05,0.0,0 STARLINK-5276,1 55399U 23014J   23153.31607246  .00002474  00000-0  22334-4 0  9999,2 55399  69.9984 107.7197 0003082 273.9146  86.1697 15.69929935 19291,6737.234,91.724,361.176,357.023,0.0
55399.0,STARLINK-5276,PAYLOAD,2023-06-02 21:20:54,15.69932887,0.0003814,69.9974,106.1046,258.5364,101.5403,2.0789e-05,2.288e-05,0.0,0 STARLINK-5276,1 55399U 23014J   23153.88951677  .00002288  00000-0  20789-4 0  9996,2 55399  69.9974 106.1046 0003814 258.5364 101.5403 15.69932887 20323,6737.226,91.724,361.661,356.521,0.0
55399.0,STARLINK-5276,PAYLOAD,2023-06-03 03:27:55,15.69922403,0.0003361,69.9981,105.3908,257.0939,102.9881,6.5293e-06,5.72e-06,0.0,0 STARLINK-5276,1 55399U 23014J   23154.14439166  .00000572  00000-0  65293-5 0  9994,2 55399  69.9981 105.3908 0003361 257.0939 102.9881 15.69922403 19425,6737.256,91.724,361.385,356.857,0.0
55399.0,STARLINK-5276,PAYLOAD,2023-06-03 06:31:25,15.6992373,0.0003612,69.9967,105.03,262.1609,97.9177,5.0406e-06,3.93e-06,0.0,0 STARLINK-5276,1 55399U 23014J   23154.27182449  .00000393  00000-0  50406-5 0  9998,2 55399  69.9967 105.0300 0003612 262.1609  97.9177 15.69923730 20384,6737.252,91.724,361.551,356.684,0.0
55399.0,STARLINK-5276,PAYLOAD,2023-06-03 21:48:57,15.6992094,0.0003823,69.9966,103.2385,267.377,92.6988,5.365e-06,4.32e-06,0.0,0 STARLINK-5276,1 55399U 23014J   23154.90899729  .00000432  00000-0  53650-5 0  9992,2 55399  69.9966 103.2385 0003823 267.3770  92.6988 15.69920940 20489,6737.26,91.724,361.701,356.55,0.0
